0 COSMOS 397 DEB
1 06844U 71015CL  13285.47429185  .00000959  00000-0  30010-3 0   233
2 06844 065.9033 100.7382 0666567 292.2405 060.9269 13.61618712986349
0 COSMOS 397 DEB
1 06844U 71015CL  13288.55914316  .00001906  00000-0  56587-3 0   241
2 06844 065.9039 093.2419 0666682 290.7047 062.3798 13.61628965986765
0 COSMOS 397 DEB
1 06844U 71015CL  13292.45189500  .00002051  00000-0  60612-3 0   251
2 06844 065.9047 083.7823 0666753 288.7950 064.1937 13.61643410987292
0 COSMOS 397 DEB
1 06844U 71015CL  13295.46324137  .00001882  00000-0  56007-3 0   267
2 06844 065.9073 076.4728 0666200 287.2481 065.6854 13.61656905987707
